[{"OBJECT_NAME":"STARLINK-4007","OBJECT_ID":"2022-053BD","EPOCH":"2026-03-09T11:04:08.866272","MEAN_MOTION":15.08844295,"ECCENTRICITY":0.0001329,"INCLINATION":53.2161,"RA_OF_ASC_NODE":135.0309,"ARG_OF_PERICENTER":96.6063,"MEAN_ANOMALY":263.508,"EPHEMERIS_TYPE":0,"CLASSIFICATION_TYPE":"U","NORAD_CAT_ID":52707,"ELEMENT_SET_NO":999,"REV_AT_EPOCH":21134,"BSTAR":-0.00011521332,"MEAN_MOTION_DOT":-2.121e-5,"MEAN_MOTION_DDOT":0},{"OBJECT_NAME":"CZ-4C DEB","OBJECT_ID":"2018-031H","EPOCH":"2026-03-09T10:10:58.582560","MEAN_MOTION":15.14033759,"ECCENTRICITY":0.00199639,"INCLINATION":98.1663,"RA_OF_ASC_NODE":242.9335,"ARG_OF_PERICENTER":272.748,"MEAN_ANOMALY":87.1465,"EPHEMERIS_TYPE":0,"CLASSIFICATION_TYPE":"U","NORAD_CAT_ID":43266,"ELEMENT_SET_NO":999,"REV_AT_EPOCH":43166,"BSTAR":0.00079064643,"MEAN_MOTION_DOT":0.00014379,"MEAN_MOTION_DDOT":0}]
